{
  "type": "FeatureCollection",
  "features": [
    {
      "type": "Feature",
      "properties": {
        "norad_id": 43602,
        "name": "BEIDOU-3 M12 (C26)",
        "group": "beidou",
        "lat": 13.365384902919441,
        "lon": -163.25809084604563,
        "alt_km": 21503.543399196173,
        "timestamp": "2025-12-27T15:27:11.456081+00:00",
        "meta_object_name": "BEIDOU-3 M12 (C26)",
        "meta_object_id": "2018-067A",
        "meta_epoch": "2025-12-26T13:05:12.985152",
        "meta_mean_motion": 1.86227811,
        "meta_eccentricity": 0.0009236,
        "meta_inclination": 54.1838,
        "meta_ra_of_asc_node": 186.8947,
        "meta_arg_of_pericenter": 41.8469,
        "meta_mean_anomaly": 318.2561,
        "meta_ephemeris_type": 0,
        "meta_classification_type": "U",
        "meta_norad_cat_id": 43602,
        "meta_element_set_no": 999,
        "meta_rev_at_epoch": 4990,
        "meta_bstar": 0,
        "meta_mean_motion_dot": 1.23e-06,
        "meta_mean_motion_ddot": 0,
        "tle_line1": "1 43602U 18067A   25360.54528918  .00000123  00000+0  00000+0 0  9999",
        "tle_line2": "2 43602  54.1838 186.8947 0009236  41.8469 318.2561  1.86227811 49905"
      },
      "geometry": {
        "type": "Point",
        "coordinates": [
          -163.25809084604563,
          13.365384902919441
        ]
      }
    },
    {
      "type": "Feature",
      "properties": {
        "norad_id": 43603,
        "name": "BEIDOU-3 M11 (C25)",
        "group": "beidou",
        "lat": -51.066747849389,
        "lon": 123.40819370590975,
        "alt_km": 21539.795177931388,
        "timestamp": "2025-12-27T15:27:11.456093+00:00",
        "meta_object_name": "BEIDOU-3 M11 (C25)",
        "meta_object_id": "2018-067B",
        "meta_epoch": "2025-12-24T12:46:04.310976",
        "meta_mean_motion": 1.86227356,
        "meta_eccentricity": 0.00056287,
        "meta_inclination": 54.181,
        "meta_ra_of_asc_node": 186.927,
        "meta_arg_of_pericenter": 37.873,
        "meta_mean_anomaly": 322.1992,
        "meta_ephemeris_type": 0,
        "meta_classification_type": "U",
        "meta_norad_cat_id": 43603,
        "meta_element_set_no": 999,
        "meta_rev_at_epoch": 4989,
        "meta_bstar": 0,
        "meta_mean_motion_dot": 1.05e-06,
        "meta_mean_motion_ddot": 0,
        "tle_line1": "1 43603U 18067B   25358.53199434  .00000105  00000+0  00000+0 0  9993",
        "tle_line2": "2 43603  54.1810 186.9270 0005628  37.8730 322.1992  1.86227356 49897"
      },
      "geometry": {
        "type": "Point",
        "coordinates": [
          123.40819370590975,
          -51.066747849389
        ]
      }
    },
    {
      "type": "Feature",
      "properties": {
        "norad_id": 43622,
        "name": "BEIDOU-3 M13 (C32)",
        "group": "beidou",
        "lat": -35.7525617649154,
        "lon": 39.86604800835366,
        "alt_km": 21515.235644542645,
        "timestamp": "2025-12-27T15:27:11.456104+00:00",
        "meta_object_name": "BEIDOU-3 M13 (C32)",
        "meta_object_id": "2018-072A",
        "meta_epoch": "2025-12-26T15:16:14.846880",
        "meta_mean_motion": 1.86231061,
        "meta_eccentricity": 0.00064836,
        "meta_inclination": 56.4704,
        "meta_ra_of_asc_node": 68.3605,
        "meta_arg_of_pericenter": 297.9888,
        "meta_mean_anomaly": 61.997,
        "meta_ephemeris_type": 0,
        "meta_classification_type": "U",
        "meta_norad_cat_id": 43622,
        "meta_element_set_no": 999,
        "meta_rev_at_epoch": 4944,
        "meta_bstar": 0,
        "meta_mean_motion_dot": -3.2e-07,
        "meta_mean_motion_ddot": 0,
        "tle_line1": "1 43622U 18072A   25360.63628295 -.00000032  00000+0  00000+0 0  9996",
        "tle_line2": "2 43622  56.4704  68.3605 0006483 297.9888  61.9970  1.86231061 49446"
      },
      "geometry": {
        "type": "Point",
        "coordinates": [
          39.86604800835366,
          -35.7525617649154
        ]
      }
    },
    {
      "type": "Feature",
      "properties": {
        "norad_id": 43623,
        "name": "BEIDOU-3 M14 (C33)",
        "group": "beidou",
        "lat": 36.685465763994024,
        "lon": 97.89517685289138,
        "alt_km": 21521.6624040017,
        "timestamp": "2025-12-27T15:27:11.456115+00:00",
        "meta_object_name": "BEIDOU-3 M14 (C33)",
        "meta_object_id": "2018-072B",
        "meta_epoch": "2025-12-26T12:02:31.218144",
        "meta_mean_motion": 1.86231056,
        "meta_eccentricity": 0.00036352,
        "meta_inclination": 56.4724,
        "meta_ra_of_asc_node": 68.3589,
        "meta_arg_of_pericenter": 326.7942,
        "meta_mean_anomaly": 33.2347,
        "meta_ephemeris_type": 0,
        "meta_classification_type": "U",
        "meta_norad_cat_id": 43623,
        "meta_element_set_no": 999,
        "meta_rev_at_epoch": 4943,
        "meta_bstar": 0,
        "meta_mean_motion_dot": -3.2e-07,
        "meta_mean_motion_ddot": 0,
        "tle_line1": "1 43623U 18072B   25360.50175021 -.00000032  00000+0  00000+0 0  9997",
        "tle_line2": "2 43623  56.4724  68.3589 0003635 326.7942  33.2347  1.86231056 49431"
      },
      "geometry": {
        "type": "Point",
        "coordinates": [
          97.89517685289138,
          36.685465763994024
        ]
      }
    },
    {
      "type": "Feature",
      "properties": {
        "norad_id": 43647,
        "name": "BEIDOU-3 M16 (C35)",
        "group": "beidou",
        "lat": -44.65281019489163,
        "lon": -99.33258943520629,
        "alt_km": 21529.639624150503,
        "timestamp": "2025-12-27T15:27:11.456127+00:00",
        "meta_object_name": "BEIDOU-3 M16 (C35)",
        "meta_object_id": "2018-078A",
        "meta_epoch": "2025-12-26T02:56:19.347360",
        "meta_mean_motion": 1.86232218,
        "meta_eccentricity": 0.0007499,
        "meta_inclination": 54.2494,
        "meta_ra_of_asc_node": 306.0535,
        "meta_arg_of_pericenter": 20.7112,
        "meta_mean_anomaly": 339.3289,
        "meta_ephemeris_type": 0,
        "meta_classification_type": "U",
        "meta_norad_cat_id": 43647,
        "meta_element_set_no": 999,
        "meta_rev_at_epoch": 4893,
        "meta_bstar": 0,
        "meta_mean_motion_dot": -5.5e-07,
        "meta_mean_motion_ddot": 0,
        "tle_line1": "1 43647U 18078A   25360.12244615 -.00000055  00000+0  00000+0 0  9998",
        "tle_line2": "2 43647  54.2494 306.0535 0007499  20.7112 339.3289  1.86232218 48932"
      },
      "geometry": {
        "type": "Point",
        "coordinates": [
          -99.33258943520629,
          -44.65281019489163
        ]
      }
    },
    {
      "type": "Feature",
      "properties": {
        "norad_id": 43648,
        "name": "BEIDOU-3 M15 (C34)",
        "group": "beidou",
        "lat": -26.591683747155333,
        "lon": 147.10448910871898,
        "alt_km": 21542.427608185357,
        "timestamp": "2025-12-27T15:27:11.456138+00:00",
        "meta_object_name": "BEIDOU-3 M15 (C34)",
        "meta_object_id": "2018-078B",
        "meta_epoch": "2025-12-26T06:02:24.001152",
        "meta_mean_motion": 1.86232322,
        "meta_eccentricity": 0.0004086,
        "meta_inclination": 54.2454,
        "meta_ra_of_asc_node": 306.0502,
        "meta_arg_of_pericenter": 19.6229,
        "meta_mean_anomaly": 340.4025,
        "meta_ephemeris_type": 0,
        "meta_classification_type": "U",
        "meta_norad_cat_id": 43648,
        "meta_element_set_no": 999,
        "meta_rev_at_epoch": 4895,
        "meta_bstar": 0,
        "meta_mean_motion_dot": -5.6e-07,
        "meta_mean_motion_ddot": 0,
        "tle_line1": "1 43648U 18078B   25360.25166668 -.00000056  00000+0  00000+0 0  9995",
        "tle_line2": "2 43648  54.2454 306.0502 0004086  19.6229 340.4025  1.86232322 48957"
      },
      "geometry": {
        "type": "Point",
        "coordinates": [
          147.10448910871898,
          -26.591683747155333
        ]
      }
    },
    {
      "type": "Feature",
      "properties": {
        "norad_id": 43683,
        "name": "BEIDOU-3 G1 (C59)",
        "group": "beidou",
        "lat": 0.27917607946717315,
        "lon": 108.12225687056605,
        "alt_km": 35780.652941973014,
        "timestamp": "2025-12-27T15:27:11.456149+00:00",
        "meta_object_name": "BEIDOU-3 G1 (C59)",
        "meta_object_id": "2018-085A",
        "meta_epoch": "2025-12-27T06:49:10.839936",
        "meta_mean_motion": 1.00276051,
        "meta_eccentricity": 0.00018902,
        "meta_inclination": 2.6422,
        "meta_ra_of_asc_node": 102.486,
        "meta_arg_of_pericenter": 63.5118,
        "meta_mean_anomaly": 172.2917,
        "meta_ephemeris_type": 0,
        "meta_classification_type": "U",
        "meta_norad_cat_id": 43683,
        "meta_element_set_no": 999,
        "meta_rev_at_epoch": 2633,
        "meta_bstar": 0,
        "meta_mean_motion_dot": -2.55e-06,
        "meta_mean_motion_ddot": 0,
        "tle_line1": "1 43683U 18085A   25361.28415324 -.00000255  00000+0  00000+0 0  9993",
        "tle_line2": "2 43683   2.6422 102.4860 0001890  63.5118 172.2917  1.00276051 26330"
      },
      "geometry": {
        "type": "Point",
        "coordinates": [
          108.12225687056605,
          0.27917607946717315
        ]
      }
    }
  ]
}